[{"OBJECT_NAME":"LAPAN-A3","OBJECT_ID":"2016-040E","EPOCH":"2026-03-09T23:01:57.724896","MEAN_MOTION":15.3238951,"ECCENTRICITY":0.00109839,"INCLINATION":97.1488,"RA_OF_ASC_NODE":68.4254,"ARG_OF_PERICENTER":22.062,"MEAN_ANOMALY":338.1093,"EPHEMERIS_TYPE":0,"CLASSIFICATION_TYPE":"U","NORAD_CAT_ID":41603,"ELEMENT_SET_NO":999,"REV_AT_EPOCH":53961,"BSTAR":0.00017567445,"MEAN_MOTION_DOT":5.428e-5,"MEAN_MOTION_DDOT":0},{"OBJECT_NAME":"STARLINK-35925","OBJECT_ID":"2025-283K","EPOCH":"2026-03-09T07:16:10.614432","MEAN_MOTION":15.3019028,"ECCENTRICITY":9.192e-5,"INCLINATION":53.1612,"RA_OF_ASC_NODE":26.0581,"ARG_OF_PERICENTER":75.3688,"MEAN_ANOMALY":284.7414,"EPHEMERIS_TYPE":0,"CLASSIFICATION_TYPE":"U","NORAD_CAT_ID":66887,"ELEMENT_SET_NO":999,"REV_AT_EPOCH":1578,"BSTAR":0.00053592951,"MEAN_MOTION_DOT":0.00015542,"MEAN_MOTION_DDOT":0}]
